NORAD_CAT_ID,OBJECT_NAME,OBJECT_TYPE,EPOCH,MEAN_MOTION,ECCENTRICITY,INCLINATION,RA_OF_ASC_NODE,ARG_OF_PERICENTER,MEAN_ANOMALY,BSTAR,MEAN_MOTION_DOT,MEAN_MOTION_DDOT,TLE_LINE0,TLE_LINE1,TLE_LINE2,SEMIMAJOR_AXIS,PERIOD,APOGEE,PERIGEE,DECAYED
53264.0,STARLINK-3950,PAYLOAD,2023-06-30 14:29:38,15.08843244,8.5e-05,53.2179,287.365,90.3101,269.7988,9.025e-05,1.149e-05,0.0,0 STARLINK-3950,1 53264U 22086Y   23181.60392264  .00001149  00000-0  90250-4 0  9990,2 53264  53.2179 287.3650 0000850  90.3101 269.7988 15.08843244 52473,6917.87,95.437,540.323,539.147,0.0
53264.0,STARLINK-3950,PAYLOAD,2023-07-01 07:58:54,15.08831698,9.64e-05,53.2179,284.094,89.4861,270.6242,5.5076e-05,5.89e-06,0.0,0 STARLINK-3950,1 53264U 22086Y   23182.33257186  .00000589  00000-0  55076-4 0  9998,2 53264  53.2179 284.0940 0000964  89.4861 270.6242 15.08831698 52583,6917.906,95.438,540.438,539.104,0.0
53264.0,STARLINK-3950,PAYLOAD,2023-07-01 23:52:45,15.08839757,8.6e-05,53.2179,281.1203,82.9207,277.1883,4.8495e-05,4.84e-06,0.0,0 STARLINK-3950,1 53264U 22086Y   23182.99496772  .00000484  00000-0  48495-4 0  9997,2 53264  53.2179 281.1203 0000860  82.9207 277.1883 15.08839757 52688,6917.881,95.438,540.341,539.151,0.0
53264.0,STARLINK-3950,PAYLOAD,2023-07-02 11:00:26,15.08863845,9.83e-05,53.2177,279.0391,77.2097,282.9005,-0.00026568,-4.516e-05,0.0,0 STARLINK-3950,1 53264U 22086Y   23183.45863897 -.00004516  00000-0 -26568-3 0  9993,2 53264  53.2177 279.0391 0000983  77.2097 282.9005 15.08863845 52753,6917.808,95.436,540.353,538.992,0.0
53264.0,STARLINK-3950,PAYLOAD,2023-07-02 14:11:13,15.08842027,9.02e-05,53.2175,278.4445,89.8915,270.2181,9.1826e-05,1.174e-05,0.0,0 STARLINK-3950,1 53264U 22086Y   23183.59112529  .00001174  00000-0  91826-4 0  9992,2 53264  53.2175 278.4445 0000902  89.8915 270.2181 15.08842027 52779,6917.874,95.437,540.363,539.115,0.0
53264.0,STARLINK-3950,PAYLOAD,2023-07-03 15:37:22,15.08847186,8.6e-05,53.2169,273.6858,90.8557,269.2534,0.00011222,1.499e-05,0.0,0 STARLINK-3950,1 53264U 22086Y   23184.65095923  .00001499  00000-0  11222-3 0  9999,2 53264  53.2169 273.6858 0000860  90.8557 269.2534 15.08847186 52933,6917.858,95.437,540.318,539.128,0.0
53264.0,STARLINK-3950,PAYLOAD,2023-07-04 12:17:24,15.08839855,8.17e-05,53.2164,269.8207,87.8598,272.2488,-4.6864e-06,-3.62e-06,0.0,0 STARLINK-3950,1 53264U 22086Y   23185.51208695 -.00000362  00000-0 -46864-5 0  9999,2 53264  53.2164 269.8207 0000817  87.8598 272.2488 15.08839855 53067,6917.881,95.438,540.311,539.181,0.0
53264.0,STARLINK-3950,PAYLOAD,2023-07-05 21:40:30,15.08841145,8.11e-05,53.217,263.5764,79.2091,280.8992,-3.292e-05,-8.12e-06,0.0,0 STARLINK-3950,1 53264U 22086Y   23186.90312807 -.00000812  00000-0 -32920-4 0  9991,2 53264  53.2170 263.5764 0000811  79.2091 280.8992 15.08841145 53273,6917.877,95.437,540.303,539.181,0.0
53264.0,STARLINK-3950,PAYLOAD,2023-07-07 03:52:49,15.08839132,8.22e-05,53.2169,257.9266,79.7573,280.3512,9.0319e-05,1.15e-05,0.0,0 STARLINK-3950,1 53264U 22086Y   23188.16168907  .00001150  00000-0  90319-4 0  9991,2 53264  53.2169 257.9266 0000822  79.7573 280.3512 15.08839132 53464,6917.883,95.438,540.317,539.179,0.0
53264.0,STARLINK-3950,PAYLOAD,2023-07-07 10:14:17,15.08904378,0.0002519,53.2172,256.7375,353.22,6.8757,0.00059768,9.254e-05,0.0,0 STARLINK-3950,1 53264U 22086Y   23188.42659616  .00009254  00000-0  59768-3 0  9997,2 53264  53.2172 256.7375 0002519 353.2200   6.8757 15.08904378 53500,6917.684,95.433,541.291,537.806,0.0
53264.0,STARLINK-3950,PAYLOAD,2023-07-07 21:22:04,15.08840187,3.11e-05,53.2167,254.6557,240.2016,119.8945,5.6032e-05,6.04e-06,0.0,0 STARLINK-3950,1 53264U 22086Y   23188.89032485  .00000604  00000-0  56032-4 0  9999,2 53264  53.2167 254.6557 0000311 240.2016 119.8945 15.08840187 53579,6917.88,95.438,539.96,539.53,0.0
53264.0,STARLINK-3950,PAYLOAD,2023-07-09 11:31:20,15.08834496,6.98e-05,53.2167,247.5187,83.9392,276.1679,-1.6635e-05,-5.52e-06,0.0,0 STARLINK-3950,1 53264U 22086Y   23190.48009755 -.00000552  00000-0 -16635-4 0  9990,2 53264  53.2167 247.5187 0000698  83.9392 276.1679 15.08834496 53810,6917.897,95.438,540.245,539.279,0.0
53264.0,STARLINK-3950,PAYLOAD,2023-07-10 09:46:43,15.08841657,8.55e-05,53.2164,243.3555,78.8848,281.224,9.2445e-05,1.184e-05,0.0,0 STARLINK-3950,1 53264U 22086Y   23191.40745095  .00001184  00000-0  92445-4 0  9990,2 53264  53.2164 243.3555 0000855  78.8848 281.2240 15.08841657 53957,6917.875,95.437,540.332,539.149,0.0
53264.0,STARLINK-3950,PAYLOAD,2023-07-11 03:15:58,15.08837532,8.67e-05,53.2161,240.084,82.0606,278.0484,8.2794e-05,1.03e-05,0.0,0 STARLINK-3950,1 53264U 22086Y   23192.13609392  .00001030  00000-0  82794-4 0  9996,2 53264  53.2161 240.0840 0000867  82.0606 278.0484 15.08837532 54061,6917.888,95.438,540.353,539.153,0.0
53264.0,STARLINK-3950,PAYLOAD,2023-07-12 09:28:17,15.08843976,9.07e-05,53.2158,234.4341,80.3727,279.7367,2.518e-05,1.13e-06,0.0,0 STARLINK-3950,1 53264U 22086Y   23193.39465078  .00000113  00000-0  25180-4 0  9993,2 53264  53.2158 234.4341 0000907  80.3727 279.7367 15.08843976 54258,6917.868,95.437,540.361,539.106,0.0
53264.0,STARLINK-3950,PAYLOAD,2023-07-13 12:29:51,15.08835962,8.91e-05,53.2161,229.379,83.9883,276.1211,-1.0454e-05,-4.54e-06,0.0,0 STARLINK-3950,1 53264U 22086Y   23194.52073784 -.00000454  00000-0 -10454-4 0  9996,2 53264  53.2161 229.3790 0000891  83.9883 276.1211 15.08835962 54421,6917.893,95.438,540.374,539.141,0.0
53264.0,STARLINK-3950,PAYLOAD,2023-07-15 02:39:07,15.08835592,9.21e-05,53.2165,222.2417,85.386,274.7238,7.7753e-05,9.5e-06,0.0,0 STARLINK-3950,1 53264U 22086Y   23196.11049858  .00000950  00000-0  77753-4 0  9992,2 53264  53.2165 222.2417 0000921  85.3860 274.7238 15.08835592 54666,6917.894,95.438,540.396,539.122,0.0
53264.0,STARLINK-3950,PAYLOAD,2023-07-16 07:16:03,15.08836309,9.14e-05,53.2163,216.8887,84.4446,275.665,1.2835e-05,-8.3e-07,0.0,0 STARLINK-3950,1 53264U 22086Y   23197.30282316 -.00000083  00000-0  12835-4 0  9990,2 53264  53.2163 216.8887 0000914  84.4446 275.6650 15.08836309 54841,6917.892,95.438,540.389,539.124,0.0
53264.0,STARLINK-3950,PAYLOAD,2023-07-17 08:42:13,15.08842291,9.39e-05,53.2162,212.1308,86.8935,273.2165,6.1348e-05,6.89e-06,0.0,0 STARLINK-3950,1 53264U 22086Y   23198.36265858  .00000689  00000-0  61348-4 0  9993,2 53264  53.2162 212.1308 0000939  86.8935 273.2165 15.08842291 55004,6917.873,95.437,540.388,539.089,0.0
53264.0,STARLINK-3950,PAYLOAD,2023-07-19 00:26:52,15.08840479,9.87e-05,53.2161,204.6974,81.7942,278.3163,1.4141e-05,-6.3e-07,0.0,0 STARLINK-3950,1 53264U 22086Y   23200.01865994 -.00000063  00000-0  14141-4 0  9992,2 53264  53.2161 204.6974 0000987  81.7942 278.3163 15.08840479 55250,6917.879,95.438,540.427,539.061,0.0
53264.0,STARLINK-3950,PAYLOAD,2023-07-21 00:08:26,15.08834862,0.0001051,53.2166,195.7768,87.2675,272.8437,8.6994e-06,-1.49e-06,0.0,0 STARLINK-3950,1 53264U 22086Y   23202.00586043 -.00000149  00000-0  86994-5 0  9999,2 53264  53.2166 195.7768 0001051  87.2675 272.8437 15.08834862 55558,6917.896,95.438,540.488,539.034,0.0
53264.0,STARLINK-3950,PAYLOAD,2023-07-24 09:13:07,15.08835264,0.0001197,53.216,180.6108,91.7152,268.3978,2.7971e-05,1.57e-06,0.0,0 STARLINK-3950,1 53264U 22086Y   23205.38410968  .00000157  00000-0  27971-4 0  9992,2 53264  53.2160 180.6108 0001197  91.7152 268.3978 15.08835264 56248,6917.895,95.438,540.588,538.932,0.0
53264.0,STARLINK-3950,PAYLOAD,2023-07-25 07:28:31,15.08835217,0.0001337,53.2172,176.4469,86.5867,273.5278,-3.2928e-06,-3.4e-06,0.0,0 STARLINK-3950,1 53264U 22086Y   23206.31147489 -.00000340  00000-0 -32928-5 0  9996,2 53264  53.2172 176.4469 0001337  86.5867 273.5278 15.08835217 56389,6917.895,95.438,540.685,538.835,0.0
53264.0,STARLINK-3950,PAYLOAD,2023-07-26 07:19:17,15.08842163,0.0001239,53.2168,171.9864,92.5639,267.5495,8.5941e-05,1.08e-05,0.0,0 STARLINK-3950,1 53264U 22086Y   23207.30506850  .00001080  00000-0  85941-4 0  9999,2 53264  53.2168 171.9864 0001239  92.5639 267.5495 15.08842163 56537,6917.874,95.437,540.596,538.882,0.0
53264.0,STARLINK-3950,PAYLOAD,2023-07-27 07:10:04,15.08848179,0.0001232,53.2161,167.5251,95.1456,264.9677,9.1647e-05,1.171e-05,0.0,0 STARLINK-3950,1 53264U 22086Y   23208.29866197  .00001171  00000-0  91647-4 0  9992,2 53264  53.2161 167.5251 0001232  95.1456 264.9677 15.08848179 56682,6917.855,95.437,540.573,538.868,0.0
53264.0,STARLINK-3950,PAYLOAD,2023-07-27 21:28:33,15.08831323,0.0001317,53.2144,164.8498,103.6775,256.4364,-3.9657e-05,-9.19e-06,0.0,0 STARLINK-3950,1 53264U 22086Y   23208.89483614 -.00000919  00000-0 -39657-4 0  9991,2 53264  53.2144 164.8498 0001317 103.6775 256.4364 15.08831323 56771,6917.907,95.438,540.683,538.861,0.0
53264.0,STARLINK-3950,PAYLOAD,2023-07-28 00:39:20,15.08834143,0.0001368,53.2163,164.2526,111.6183,248.4954,-9.7859e-05,-1.845e-05,0.0,0 STARLINK-3950,1 53264U 22086Y   23209.02731745 -.00001845  00000-0 -97859-4 0  9995,2 53264  53.2163 164.2526 0001368 111.6183 248.4954 15.08834143 56618,6917.898,95.438,540.71,538.817,0.0
53264.0,STARLINK-3950,PAYLOAD,2023-07-28 07:00:53,15.08832268,0.0001228,53.2173,163.0649,92.9976,267.1157,-0.00010245,-1.918e-05,0.0,0 STARLINK-3950,1 53264U 22086Y   23209.29228083 -.00001918  00000-0 -10245-3 0  9994,2 53264  53.2173 163.0649 0001228  92.9976 267.1157 15.08832268 56831,6917.904,95.438,540.619,538.92,0.0
53264.0,STARLINK-3950,PAYLOAD,2023-07-29 03:40:52,15.08861184,0.0001088,53.2169,159.2012,81.9774,278.1342,-0.00015324,-2.727e-05,0.0,0 STARLINK-3950,1 53264U 22086Y   23210.15338678 -.00002727  00000-0 -15324-3 0  9995,2 53264  53.2169 159.2012 0001088  81.9774 278.1342 15.08861184 56786,6917.816,95.436,540.433,538.928,0.0
53264.0,STARLINK-3950,PAYLOAD,2023-07-29 13:13:11,15.0884218,0.0001341,53.2178,157.4172,81.5804,278.534,-1.5069e-05,-5.28e-06,0.0,0 STARLINK-3950,1 53264U 22086Y   23210.55083182 -.00000528  00000-0 -15069-4 0  9990,2 53264  53.2178 157.4172 0001341  81.5804 278.5340 15.08842180 56849,6917.874,95.437,540.666,538.811,0.0
